OSCAR 7 (AO-7)          
1 07530U 74089B   19172.89633141 -.00000029  00000-0  98217-4 0  9991
2 07530 101.7438 140.5242 0012119 343.3116  72.4310 12.53638564 40929
UOSAT 2 (UO-11)         
1 14781U 84021B   19173.07357021  .00000016  00000-0  80338-5 0  9996
2 14781  97.6103 197.6324 0007322 316.4892  43.5744 14.83091276899260
LUSAT (LO-19)           
1 20442U 90005G   19173.43981059  .00000000  00000-0  16285-4 0  9992
2 20442  98.6487 115.4333 0012539 134.2745 225.9469 14.32927421536918
ITAMSAT (IO-26)         
1 22826U 93061D   19173.83855326 -.00000022  00000-0  95108-5 0  9993
2 22826  98.8970 162.5609 0008570 342.9977  17.0916 14.30394375342746
RADIO ROSTO (RS-15)     
1 23439U 94085A   19172.88633995 -.00000045  00000-0 -69732-4 0  9990
2 23439  64.8163 110.9584 0146194 112.5857 249.0608 11.27568131  8252
JAS-2 (FO-29)           
1 24278U 96046B   19173.02494859 -.00000029  00000-0  85644-5 0  9994
2 24278  98.5376 325.9835 0349496 231.2641 125.6779 13.53091930128251
TECHSAT 1B (GO-32)      
1 25397U 98043D   19172.85243024 -.00000016  00000-0  12371-4 0  9994
2 25397  98.6889 112.9580 0002128  55.9471 304.1909 14.23666751 88324
ISS (ZARYA)             
1 25544U 98067A   19174.05036204  .00001525  00000-0  33398-4 0  9995
2 25544  51.6442 332.2030 0008185  74.7737  30.3832 15.51219884176168
PCSAT (NO-44)           
1 26931U 01043C   19172.92648448 -.00000038  00000-0  17122-4 0  9993
2 26931  67.0516 355.3333 0006703 278.9460  81.0882 14.30545074925360
SAUDISAT 1C (SO-50)     
1 27607U 02058C   19172.86765401 -.00000048  00000-0  14198-4 0  9994
2 27607  64.5558  39.8871 0081255 255.9181 103.2880 14.75553565887501
CUTE-1 (CO-55)          
1 27844U 03031E   19173.02998378  .00000018  00000-0  27922-4 0  9994
2 27844  98.6832 181.1936 0010411  28.3119 331.8622 14.22181847828767
CUBESAT XI-IV (CO-57)   
1 27848U 03031J   19172.95269932  .00000015  00000-0  26681-4 0  9994
2 27848  98.6910 181.6184 0010475  39.2831 320.9105 14.21776515828609
MOZHAYETS 4 (RS-22)     
1 27939U 03042A   19173.80005470  .00000072  00000-0  21498-4 0  9991
2 27939  98.0417 309.5349 0014054  58.0600 302.1986 14.66785798841145
CUBESAT XI-V            
1 28895U 05043F   19173.33666805  .00000082  00000-0  24530-4 0  9990
2 28895  97.9598 315.9427 0016273 345.0073  15.0646 14.63669373728011
CUTE-1.7+APD II (CO-65) 
1 32785U 08021C   19173.18153843  .00000111  00000-0  17647-4 0  9992
2 32785  97.5492 172.7313 0011533 249.0506 110.9478 14.88311765604202
DELFI-C3 (DO-64)        
1 32789U 08021G   19172.67251386  .00000916  00000-0  65198-4 0  9997
2 32789  97.4640 222.2483 0013964 113.1601 247.1100 15.06957042607412
SEEDS II (CO-66)        
1 32791U 08021J   19172.99279242  .00000081  00000-0  13583-4 0  9990
2 32791  97.5274 178.5287 0012183 221.7904 138.2385 14.90822264604600
YUBILEINY (RS-30)       
1 32953U 08025A   19173.74928754  .00000021  00000-0  75656-4 0  9990
2 32953  82.5004 142.2411 0020330 118.0264 242.2881 12.43090137502811
KKS-1 (KISEKI)          
1 33499U 09002H   19173.13342422  .00000025  00000-0  11698-4 0  9997
2 33499  98.3501  11.9510 0008894 187.5494 172.5581 14.75442536559739
SWISSCUBE               
1 35932U 09051B   19173.44456369  .00000085  00000-0  30170-4 0  9997
2 35932  98.5884 339.5272 0008337 146.6628 213.5096 14.56285989517322
BEESAT-1                
1 35933U 09051C   19172.76026314  .00000070  00000-0  26721-4 0  9996
2 35933  98.5909 340.5826 0006254 158.3626 201.7836 14.56374850517330
ITUPSAT1                
1 35935U 09051E   19173.43839822  .00000028  00000-0  17585-4 0  9990
2 35935  98.6021 341.5188 0008622 156.7289 203.4299 14.55534713517188
XIWANG-1 (HOPE-1)       
1 36122U 09072B   19173.45996670 -.00000051  00000-0 -24026-4 0  9995
2 36122 100.0713 175.6634 0007539 344.1048  15.9829 13.16349738457373
JUGNU                   
1 37839U 11058B   19172.56240567  .00000298  00000-0  17026-4 0  9999
2 37839  19.9623 317.3721 0019033 358.9408  72.4634 14.12652564397662
SRMSAT                  
1 37841U 11058D   19172.24056713  .00000300  00000-0  19474-4 0  9998
2 37841  19.9739  16.1470 0011884 224.7875  97.7219 14.10633950397050
M-CUBED & EXP-1 PRIME   
1 37855U 11061F   19173.52125725  .00001037  00000-0  59547-4 0  9992
2 37855 101.7143  71.0859 0173766  65.4543 296.4671 15.05417565417358
STRAND-1                
1 39090U 13009E   19173.83000805 -.00000017  00000-0  91294-5 0  9998
2 39090  98.4882  19.7196 0007927 278.4314  81.5972 14.35087460330982
SOMP                    
1 39134U 13015E   19172.91244665  .00000532  00000-0  33765-4 0  9995
2 39134  64.8636  10.0042 0030724 302.7610  57.0557 15.20157401340706
BEESAT-3                
1 39135U 13015F   19173.03803879  .00000543  00000-0  36786-4 0  9996
2 39135  64.8693  27.9410 0021455 321.9714  37.9897 15.17466956340758
BEESAT-2                
1 39136U 13015G   19172.87851454  .00000543  00000-0  37367-4 0  9996
2 39136  64.8701  32.2879 0019366 300.6812  59.2405 15.16894286340659
ZACUBE-1 (TSHEPISOSAT)  
1 39417U 13066B   19173.08295134  .00000118  00000-0  21216-4 0  9999
2 39417  97.5619 186.3941 0059605  24.3810 336.0202 14.81115391301541
GOMX-1                  
1 39430U 13066Q   19173.73662633  .00000090  00000-0  25670-4 0  9995
2 39430  97.7467 130.0226 0149729 241.3522 117.2558 14.59252970297197
CUBEBUG-2 (LO-74)       
1 39440U 13066AA  19172.93775376  .00000116  00000-0  22946-4 0  9998
2 39440  97.6017 171.1829 0081844  74.7370 286.2870 14.75853395299254
FUNCUBE-1 (AO-73)       
1 39444U 13066AE  19173.01412110  .00000159  00000-0  25836-4 0  9994
2 39444  97.5602 188.2779 0058590  18.5530 341.7802 14.81933940300422
UWE-3                   
1 39446U 13066AG  19173.00397166  .00000115  00000-0  21825-4 0  9994
2 39446  97.5808 178.2707 0071291  50.1568 310.5887 14.78387975299755
SPROUT                  
1 39770U 14029E   19173.86988021  .00000470  00000-0  58096-4 0  9998
2 39770  97.8857 277.1363 0010667  74.7411 285.4986 14.87340786275458
UNISAT-6                
1 40012U 14033C   19173.81677024  .00000097  00000-0  21721-4 0  9997
2 40012  97.7572  40.2510 0059867  84.6468 276.1567 14.73977902269290
DUCHIFAT-1              
1 40021U 14033M   19173.37030309  .00000125  00000-0  18591-4 0  9990
2 40021  97.9241  97.9761 0014067  42.8845 317.3467 14.90627758272099
QB50P1                  
1 40025U 14033R   19173.79961759  .00000186  00000-0  25798-4 0  9996
2 40025  97.9060  93.4773 0013656  50.2077 310.0340 14.88942530271936
NUDT-PHONESAT           
1 40900U 15049B   19173.71687697  .00001000  00000-0  45786-4 0  9999
2 40900  97.4361 183.0110 0013202 163.1106 285.8231 15.22775289208271
ZDPS 2A                 
1 40901U 15049C   19173.69819149  .00000250  00000-0  15727-4 0  9994
2 40901  97.4588 179.4641 0013168 181.8180 267.9416 15.17718355207844
ZDPS 2B                 
1 40902U 15049D   19173.91754166  .00000681  00000-0  37225-4 0  9992
2 40902  97.4535 177.1893 0013424 178.1419 248.4388 15.17534900207855
XW-2A                   
1 40903U 15049E   19173.74589340  .00000964  00000-0  24689-4 0  9998
2 40903  97.3363 216.5315 0015153 126.6204  10.9068 15.41840560210874
KAITUO 1A               
1 40904U 15049F   19173.76400631 -.00000059  00000-0  39336-6 0  9999
2 40904  97.4657 175.7027 0014140 187.1775 280.3615 15.15358116207619
2015-049G               
1 40905U 15049G   19173.77720848  .00000095  00000-0  87450-5 0  9994
2 40905  97.4697 173.2678 0015304 182.4678 263.6375 15.14287980207494
XW-2C                   
1 40906U 15049H   19173.69925940  .00000042  00000-0  56737-5 0  9992
2 40906  97.4671 175.7111 0014730 178.3326 295.0756 15.15666970207608
XW-2D                   
1 40907U 15049J   19173.78520833  .00000466  00000-0  27786-4 0  9996
2 40907  97.4643 175.4725 0014340 175.1591 171.7453 15.15857363207626
LILACSAT-2              
1 40908U 15049K   19173.75029390 -.00000122  00000-0 -31044-5 0  9990
2 40908  97.4773 174.2929 0015584 182.4841 226.0934 15.13795622207427
XW-2F                   
1 40910U 15049M   19173.76154162  .00000336  00000-0  20190-4 0  9994
2 40910  97.4610 177.4321 0015032 169.0637 277.1891 15.17284441207631
XW-2B                   
1 40911U 15049N   19173.70464223  .00000054  00000-0  63103-5 0  9990
2 40911  97.4668 176.0418 0013999 176.7782 271.6080 15.15784886207515
KAITUO 1B               
1 40912U 15049P   19173.97840698  .00000526  00000-0  27877-4 0  9995
2 40912  97.4495 181.2764 0015699 151.5915 264.5374 15.19595303207968
TIANWANG 1C (TW-1C)     
1 40926U 15051B   19173.83114675  .00006947  00000-0  10213-3 0  9995
2 40926  97.1339 219.9985 0007762  12.9788  74.8816 15.55756599210807
TIANWANG 1A (TW-1A)     
1 40928U 15051D   19173.77964802  .00001837  00000-0  46754-4 0  9998
2 40928  97.1442 204.9918 0012902  62.9463  26.2884 15.40775677209807
LAPAN-A2                
1 40931U 15052B   19173.13146844  .00000711  00000-0  99612-5 0  9993
2 40931   6.0061  32.1178 0013122 200.0852 160.0072 14.76608498201776
E-ST@R-II               
1 41459U 16025D   19173.85894476  .00000407  00000-0  25356-4 0  9995
2 41459  98.1010 260.5720 0167312 344.7931  14.8308 15.05450636173175
AAUSAT 4                
1 41460U 16025E   19173.82945124  .00000828  00000-0  45856-4 0  9995
2 41460  98.0963 261.7943 0157117 337.6670  21.7764 15.07333556173295
NUSAT-1 (FRESCO)        
1 41557U 16033B   19173.84434465  .00000704  00000-0  29141-4 0  9996
2 41557  97.4180 261.3198 0012153 285.0131  74.9763 15.27207770170726
BEESAT-4                
1 41619U 16040W   19172.86557184  .00000805  00000-0  37044-4 0  9991
2 41619  97.3671 235.0303 0011824  21.3016 338.8711 15.23122172154345
CAS-2T & KS-1Q          
1 41847U 16066G   19172.73998418  .00000053  00000-0  19080-4 0  9992
2 41847  98.7052 213.5181 0365110 225.7561 131.3119 14.37989023137435
NAYIF-1 (EO-88)         
1 42017U 17008BX  19173.82989931  .00000881  00000-0  37594-4 0  9999
2 42017  97.4028 240.8815 0007235 142.4519 217.7226 15.25523932130555
MAX VALIER SAT          
1 42778U 17036P   19172.75012149  .00000527  00000-0  26075-4 0  9992
2 42778  97.3540 230.3497 0011569 206.1070 153.9585 15.22010356110704
RADFXSAT (FOX-1B)       
1 43017U 17073E   19173.32060388  .00000224  00000-0  22793-4 0  9999
2 43017  97.7233  94.5402 0258981 146.3424 215.4543 14.78546174 85799
FOX-1D (AO-92)          
1 43137U 18004AC  19173.76732618  .00000571  00000-0  26979-4 0  9992
2 43137  97.4872 241.5610 0007876 236.2957 123.7530 15.23457483 80111
ES'HAIL 2               
1 43700U 18090A   19173.81070139  .00000143  00000-0  00000+0 0  9999
2 43700   0.0093 352.4794 0001186  99.7400 136.1299  1.00268719  2330
FOX-1CLIFF (AO-95)      
1 43770U 18099N   19173.31757631 -.00000160  00000-0 -93858-5 0  9999
2 43770  97.7450 245.1407 0013712 326.8913  33.1447 14.94764243 29966
ITASAT 1                
1 43786U 18099AE  19173.19959275  .00000261  00000-0  29005-4 0  9992
2 43786  97.7463 245.1793 0014170 320.8541  39.1653 14.95134745 29958
JY1SAT (JO-97)          
1 43803U 18099AX  19173.45171983 -.00000158  00000-0 -90154-5 0  9994
2 43803  97.7422 245.3511 0014197 320.8305  39.1887 14.95265835 29987
